[{"OBJECT_NAME":"ORBCOMM FM16","OBJECT_ID":"1998-046E","EPOCH":"2026-03-28T19:44:31.705152","MEAN_MOTION":14.39886466,"ECCENTRICITY":0.0003806,"INCLINATION":44.9929,"RA_OF_ASC_NODE":260.1271,"ARG_OF_PERICENTER":282.934,"MEAN_ANOMALY":77.1084,"EPHEMERIS_TYPE":0,"CLASSIFICATION_TYPE":"U","NORAD_CAT_ID":25417,"ELEMENT_SET_NO":999,"REV_AT_EPOCH":44526,"BSTAR":0.00046053,"MEAN_MOTION_DOT":1.318e-5,"MEAN_MOTION_DDOT":0},{"OBJECT_NAME":"ORBCOMM FM15","OBJECT_ID":"1998-046F","EPOCH":"2026-03-28T19:15:08.197344","MEAN_MOTION":14.39508054,"ECCENTRICITY":0.0003447,"INCLINATION":44.9964,"RA_OF_ASC_NODE":266.2493,"ARG_OF_PERICENTER":284.2726,"MEAN_ANOMALY":75.7739,"EPHEMERIS_TYPE":0,"CLASSIFICATION_TYPE":"U","NORAD_CAT_ID":25418,"ELEMENT_SET_NO":999,"REV_AT_EPOCH":44524,"BSTAR":0.00041036,"MEAN_MOTION_DOT":1.149e-5,"MEAN_MOTION_DDOT":0},{"OBJECT_NAME":"ORBCOMM FM14","OBJECT_ID":"1998-046G","EPOCH":"2026-03-28T19:26:22.407648","MEAN_MOTION":14.39947771,"ECCENTRICITY":0.0002375,"INCLINATION":44.995,"RA_OF_ASC_NODE":263.5424,"ARG_OF_PERICENTER":270.7684,"MEAN_ANOMALY":89.2893,"EPHEMERIS_TYPE":0,"CLASSIFICATION_TYPE":"U","NORAD_CAT_ID":25419,"ELEMENT_SET_NO":999,"REV_AT_EPOCH":44522,"BSTAR":0.00041824,"MEAN_MOTION_DOT":1.185e-5,"MEAN_MOTION_DDOT":0},{"OBJECT_NAME":"ORBCOMM FM13","OBJECT_ID":"1998-046H","EPOCH":"2026-03-28T18:34:21.806400","MEAN_MOTION":14.38489395,"ECCENTRICITY":0.0004556,"INCLINATION":44.9966,"RA_OF_ASC_NODE":274.6782,"ARG_OF_PERICENTER":262.9602,"MEAN_ANOMALY":97.0728,"EPHEMERIS_TYPE":0,"CLASSIFICATION_TYPE":"U","NORAD_CAT_ID":25420,"ELEMENT_SET_NO":999,"REV_AT_EPOCH":44420,"BSTAR":0.0003559,"MEAN_MOTION_DOT":9.55e-6,"MEAN_MOTION_DDOT":0},{"OBJECT_NAME":"ORBCOMM FM21","OBJECT_ID":"1998-053A","EPOCH":"2026-03-28T18:52:04.986048","MEAN_MOTION":14.38052076,"ECCENTRICITY":0.000125,"INCLINATION":45.0099,"RA_OF_ASC_NODE":1.0033,"ARG_OF_PERICENTER":277.4056,"MEAN_ANOMALY":82.665,"EPHEMERIS_TYPE":0,"CLASSIFICATION_TYPE":"U","NORAD_CAT_ID":25475,"ELEMENT_SET_NO":999,"REV_AT_EPOCH":43820,"BSTAR":0.00031979,"MEAN_MOTION_DOT":8.35e-6,"MEAN_MOTION_DDOT":0},{"OBJECT_NAME":"ORBCOMM FM22","OBJECT_ID":"1998-053B","EPOCH":"2026-03-28T11:01:03.281664","MEAN_MOTION":14.39292517,"ECCENTRICITY":0.00023651,"INCLINATION":45.0093,"RA_OF_ASC_NODE":354.8998,"ARG_OF_PERICENTER":236.9222,"MEAN_ANOMALY":123.14,"EPHEMERIS_TYPE":0,"CLASSIFICATION_TYPE":"U","NORAD_CAT_ID":25476,"ELEMENT_SET_NO":999,"REV_AT_EPOCH":43821,"BSTAR":0.00039728375,"MEAN_MOTION_DOT":1.102e-5,"MEAN_MOTION_DDOT":0},{"OBJECT_NAME":"ORBCOMM FM23","OBJECT_ID":"1998-053C","EPOCH":"2026-03-28T17:49:20.500032","MEAN_MOTION":14.3832083,"ECCENTRICITY":0.0001762,"INCLINATION":45.0099,"RA_OF_ASC_NODE":2.8425,"ARG_OF_PERICENTER":245.4106,"MEAN_ANOMALY":114.6559,"EPHEMERIS_TYPE":0,"CLASSIFICATION_TYPE":"U","NORAD_CAT_ID":25477,"ELEMENT_SET_NO":999,"REV_AT_EPOCH":43835,"BSTAR":0.000376,"MEAN_MOTION_DOT":1.013e-5,"MEAN_MOTION_DDOT":0},{"OBJECT_NAME":"ORBCOMM FM24","OBJECT_ID":"1998-053D","EPOCH":"2026-03-28T18:27:08.786016","MEAN_MOTION":14.38973513,"ECCENTRICITY":0.0001675,"INCLINATION":45.0094,"RA_OF_ASC_NODE":358.8611,"ARG_OF_PERICENTER":257.8542,"MEAN_ANOMALY":102.2119,"EPHEMERIS_TYPE":0,"CLASSIFICATION_TYPE":"U","NORAD_CAT_ID":25478,"ELEMENT_SET_NO":999,"REV_AT_EPOCH":43842,"BSTAR":0.00038096,"MEAN_MOTION_DOT":1.043e-5,"MEAN_MOTION_DDOT":0},{"OBJECT_NAME":"ORBCOMM FM25","OBJECT_ID":"1998-053E","EPOCH":"2026-03-28T19:34:47.380224","MEAN_MOTION":14.38934811,"ECCENTRICITY":0.0004044,"INCLINATION":45.0087,"RA_OF_ASC_NODE":356.9568,"ARG_OF_PERICENTER":250.8094,"MEAN_ANOMALY":109.2317,"EPHEMERIS_TYPE":0,"CLASSIFICATION_TYPE":"U","NORAD_CAT_ID":25479,"ELEMENT_SET_NO":999,"REV_AT_EPOCH":43872,"BSTAR":0.0004086,"MEAN_MOTION_DOT":1.129e-5,"MEAN_MOTION_DDOT":0},{"OBJECT_NAME":"ORBCOMM FM26","OBJECT_ID":"1998-053F","EPOCH":"2026-03-28T11:17:29.387328","MEAN_MOTION":14.37857969,"ECCENTRICITY":0.00061634,"INCLINATION":45.0085,"RA_OF_ASC_NODE":357.2418,"ARG_OF_PERICENTER":260.533,"MEAN_ANOMALY":99.4821,"EPHEMERIS_TYPE":0,"CLASSIFICATION_TYPE":"U","NORAD_CAT_ID":25480,"ELEMENT_SET_NO":999,"REV_AT_EPOCH":43855,"BSTAR":0.00032529901,"MEAN_MOTION_DOT":8.48e-6,"MEAN_MOTION_DDOT":0},{"OBJECT_NAME":"ORBCOMM FM27","OBJECT_ID":"1998-053G","EPOCH":"2026-03-28T17:27:00.872352","MEAN_MOTION":14.38978043,"ECCENTRICITY":0.0001209,"INCLINATION":45.007,"RA_OF_ASC_NODE":357.4647,"ARG_OF_PERICENTER":316.8551,"MEAN_ANOMALY":43.2203,"EPHEMERIS_TYPE":0,"CLASSIFICATION_TYPE":"U","NORAD_CAT_ID":25481,"ELEMENT_SET_NO":999,"REV_AT_EPOCH":43864,"BSTAR":0.00037397,"MEAN_MOTION_DOT":1.022e-5,"MEAN_MOTION_DDOT":0},{"OBJECT_NAME":"ORBCOMM FM28","OBJECT_ID":"1998-053H","EPOCH":"2026-03-28T21:00:36.312192","MEAN_MOTION":14.39067331,"ECCENTRICITY":0.0003958,"INCLINATION":45.0052,"RA_OF_ASC_NODE":293.9513,"ARG_OF_PERICENTER":291.7112,"MEAN_ANOMALY":68.3315,"EPHEMERIS_TYPE":0,"CLASSIFICATION_TYPE":"U","NORAD_CAT_ID":25482,"ELEMENT_SET_NO":999,"REV_AT_EPOCH":43935,"BSTAR":0.00033535,"MEAN_MOTION_DOT":9.03e-6,"MEAN_MOTION_DDOT":0},{"OBJECT_NAME":"ORBCOMM FM30","OBJECT_ID":"1999-065A","EPOCH":"2026-03-28T15:16:47.332416","MEAN_MOTION":14.38020683,"ECCENTRICITY":0.000541,"INCLINATION":45.0308,"RA_OF_ASC_NODE":182.5685,"ARG_OF_PERICENTER":338.9846,"MEAN_ANOMALY":21.078,"EPHEMERIS_TYPE":0,"CLASSIFICATION_TYPE":"U","NORAD_CAT_ID":25980,"ELEMENT_SET_NO":999,"REV_AT_EPOCH":37538,"BSTAR":0.00032333,"MEAN_MOTION_DOT":8.45e-6,"MEAN_MOTION_DDOT":0},{"OBJECT_NAME":"ORBCOMM FM31","OBJECT_ID":"1999-065B","EPOCH":"2026-03-28T13:18:16.735104","MEAN_MOTION":14.37940513,"ECCENTRICITY":0.00024138,"INCLINATION":45.0221,"RA_OF_ASC_NODE":176.3975,"ARG_OF_PERICENTER":357.1186,"MEAN_ANOMALY":2.9648,"EPHEMERIS_TYPE":0,"CLASSIFICATION_TYPE":"U","NORAD_CAT_ID":25981,"ELEMENT_SET_NO":999,"REV_AT_EPOCH":37492,"BSTAR":0.00028479665,"MEAN_MOTION_DOT":7.26e-6,"MEAN_MOTION_DDOT":0},{"OBJECT_NAME":"ORBCOMM FM32","OBJECT_ID":"1999-065C","EPOCH":"2026-03-28T15:34:20.198496","MEAN_MOTION":14.37003858,"ECCENTRICITY":0.0004495,"INCLINATION":45.0148,"RA_OF_ASC_NODE":194.4219,"ARG_OF_PERICENTER":6.2329,"MEAN_ANOMALY":353.8574,"EPHEMERIS_TYPE":0,"CLASSIFICATION_TYPE":"U","NORAD_CAT_ID":25982,"ELEMENT_SET_NO":999,"REV_AT_EPOCH":37550,"BSTAR":0.00033454,"MEAN_MOTION_DOT":8.59e-6,"MEAN_MOTION_DDOT":0},{"OBJECT_NAME":"ORBCOMM FM33","OBJECT_ID":"1999-065D","EPOCH":"2026-03-28T16:04:29.161344","MEAN_MOTION":14.4082809,"ECCENTRICITY":0.0007131,"INCLINATION":45.0278,"RA_OF_ASC_NODE":85.568,"ARG_OF_PERICENTER":40.3069,"MEAN_ANOMALY":319.8308,"EPHEMERIS_TYPE":0,"CLASSIFICATION_TYPE":"U","NORAD_CAT_ID":25983,"ELEMENT_SET_NO":999,"REV_AT_EPOCH":37708,"BSTAR":0.00034616,"MEAN_MOTION_DOT":9.76e-6,"MEAN_MOTION_DDOT":0},{"OBJECT_NAME":"ORBCOMM FM36","OBJECT_ID":"1999-065E","EPOCH":"2026-03-28T15:37:53.264352","MEAN_MOTION":14.39031092,"ECCENTRICITY":0.0004188,"INCLINATION":45.0383,"RA_OF_ASC_NODE":181.8679,"ARG_OF_PERICENTER":266.5153,"MEAN_ANOMALY":93.5217,"EPHEMERIS_TYPE":0,"CLASSIFICATION_TYPE":"U","NORAD_CAT_ID":25984,"ELEMENT_SET_NO":999,"REV_AT_EPOCH":37538,"BSTAR":0.00042425,"MEAN_MOTION_DOT":1.18e-5,"MEAN_MOTION_DDOT":0}]
