ORBCOMM FM16            
1 25417U 98046E   26087.82258918  .00001318  00000+0  46053-3 0  9995
2 25417  44.9929 260.1271 0003806 282.9340  77.1084 14.39886466445265
ORBCOMM FM15            
1 25418U 98046F   26087.80217821  .00001149  00000+0  41036-3 0  9990
2 25418  44.9964 266.2493 0003447 284.2726  75.7739 14.39508054445245
ORBCOMM FM14            
1 25419U 98046G   26087.80998157  .00001185  00000+0  41824-3 0  9994
2 25419  44.9950 263.5424 0002375 270.7684  89.2893 14.39947771445229
ORBCOMM FM13            
1 25420U 98046H   26087.77386350  .00000955  00000+0  35590-3 0  9995
2 25420  44.9966 274.6782 0004556 262.9602  97.0728 14.38489395444207
ORBCOMM FM21            
1 25475U 98053A   26087.78616882  .00000835  00000+0  31979-3 0  9994
2 25475  45.0099   1.0033 0001250 277.4056  82.6650 14.38052076438208
ORBCOMM FM22            
1 25476U 98053B   26087.45906576  .00001102  00000+0  39728-3 0  9999
2 25476  45.0093 354.8998 0002365 236.9222 123.1400 14.39292517438217
ORBCOMM FM23            
1 25477U 98053C   26087.74259838  .00001013  00000+0  37600-3 0  9992
2 25477  45.0099   2.8425 0001762 245.4106 114.6559 14.38320830438359
ORBCOMM FM24            
1 25478U 98053D   26087.76885169  .00001043  00000+0  38096-3 0  9990
2 25478  45.0094 358.8611 0001675 257.8542 102.2119 14.38973513438425
ORBCOMM FM25            
1 25479U 98053E   26087.81582616  .00001129  00000+0  40860-3 0  9995
2 25479  45.0087 356.9568 0004044 250.8094 109.2317 14.38934811438724
ORBCOMM FM26            
1 25480U 98053F   26087.47047902  .00000848  00000+0  32530-3 0  9995
2 25480  45.0085 357.2418 0006163 260.5330  99.4821 14.37857969438555
ORBCOMM FM27            
1 25481U 98053G   26087.72709343  .00001022  00000+0  37397-3 0  9999
2 25481  45.0070 357.4647 0001209 316.8551  43.2203 14.38978043438641
ORBCOMM FM28            
1 25482U 98053H   26087.87542028  .00000903  00000+0  33535-3 0  9998
2 25482  45.0052 293.9513 0003958 291.7112  68.3315 14.39067331439356
ORBCOMM FM30            
1 25980U 99065A   26087.63665894  .00000845  00000+0  32333-3 0  9996
2 25980  45.0308 182.5685 0005410 338.9846  21.0780 14.38020683375381
ORBCOMM FM31            
1 25981U 99065B   26087.55436036  .00000726  00000+0  28480-3 0  9998
2 25981  45.0221 176.3975 0002413 357.1186   2.9648 14.37940513374921
ORBCOMM FM32            
1 25982U 99065C   26087.64884489  .00000859  00000+0  33454-3 0  9992
2 25982  45.0148 194.4219 0004495   6.2329 353.8574 14.37003858375508
ORBCOMM FM33            
1 25983U 99065D   26087.66978196  .00000976  00000+0  34616-3 0  9995
2 25983  45.0278  85.5680 0007131  40.3069 319.8308 14.40828090377084
ORBCOMM FM36            
1 25984U 99065E   26087.65131093  .00001180  00000+0  42425-3 0  9997
2 25984  45.0383 181.8679 0004188 266.5153  93.5217 14.39031092375387
